ONEWEB-0160             
1 48060U 21025U   24060.57593887 -.00000026  00000+0 -10722-3 0  9996
2 48060  87.8971 127.1765 0002789  89.5441 270.6007 13.13467791143479
ONEWEB-0163             
1 48061U 21025V   24060.56165603  .00000245  00000+0  63539-3 0  9992
2 48061  87.8966 127.1749 0001725 109.0816 251.0500 13.13467970143592
ONEWEB-0159             
1 48062U 21025W   24060.70290577  .00000231  00000+0  59737-3 0  9998
2 48062  87.8964 127.1313 0001944 110.2445 249.8893 13.13468615143534
ONEWEB-0164             
1 48063U 21025X   24060.60925376 -.00000368  00000+0 -10428-2 0  9996
2 48063  87.8965 127.1595 0001910  98.1887 261.9458 13.13469861143508
ONEWEB-0167             
1 48064U 21025Y   24060.56244463  .00000234  00000+0  60473-3 0  9999
2 48064  87.8968 127.1795 0001793 107.7132 252.4193 13.13471402143485
ONEWEB-0166             
1 48065U 21025Z   24060.73623038 -.00000276  00000+0 -79207-3 0  9991
2 48065  87.8963 127.1324 0002049 108.8517 251.2834 13.13468560143584
ONEWEB-0151             
1 48066U 21025AA  24060.73781701  .00000499  00000+0  13302-2 0  9992
2 48066  87.8966 127.1426 0001723  97.3664 262.7661 13.13464208143539
ONEWEB-0170             
1 48067U 21025AB  24060.74574242 -.00000415  00000+0 -11721-2 0  9997
2 48067  87.8967 127.1424 0002100  83.9376 276.1992 13.13467658143482
